ORBCOMM-X               
1 21576U 91050C   25091.42159552  .00000698  00000+0  22047-3 0  9996
2 21576  98.3497 159.5649 0004662  68.7631 291.4057 14.43176425771045
ORBCOMM FM01            
1 23545U 95017A   25091.57959732  .00011111  00000+0  11917-2 0  9990
2 23545  69.9633 265.0109 0000313 137.6974 222.4204 14.88813661601104
ORBCOMM FM02            
1 23546U 95017B   25091.62745993  .00013777  00000+0  14548-2 0  9992
2 23546  69.9649 284.4917 0001578  95.0395 265.0939 14.89369238600757
ORBCOMM FM08            
1 25112U 97084A   25091.47470986  .00003049  00000+0  89741-3 0  9998
2 25112  45.0151  16.0358 0005710 231.8472 128.1865 14.45461455430278
ORBCOMM FM10            
1 25113U 97084B   25091.51374633  .00003034  00000+0  89714-3 0  9990
2 25113  45.0162  18.0960 0003398 195.8612 164.2133 14.45250618605424
ORBCOMM FM11            
1 25114U 97084C   25091.50512354  .00003187  00000+0  94528-3 0  9992
2 25114  45.0148  18.6323 0004245 196.1453 163.9263 14.45005824430385
ORBCOMM FM12            
1 25115U 97084D   25091.46876654  .00002946  00000+0  87646-3 0  9999
2 25115  45.0157  18.5652 0003200 195.6125 164.4628 14.45028830430170
ORBCOMM FM09            
1 25116U 97084E   25091.49467896  .00003066  00000+0  91257-3 0  9994
2 25116  45.0160  19.2995 0004419 177.3846 182.7029 14.44916666430386
